[{"OBJECT_NAME":"LEMUR-2-EMBRIONOVIS","OBJECT_ID":"2023-084AQ","EPOCH":"2026-03-09T22:21:55.974240","MEAN_MOTION":15.34650722,"ECCENTRICITY":0.00082915,"INCLINATION":97.613,"RA_OF_ASC_NODE":209.6192,"ARG_OF_PERICENTER":311.1934,"MEAN_ANOMALY":48.8593,"EPHEMERIS_TYPE":0,"CLASSIFICATION_TYPE":"U","NORAD_CAT_ID":56970,"ELEMENT_SET_NO":999,"REV_AT_EPOCH":15244,"BSTAR":0.00028007408,"MEAN_MOTION_DOT":9.331e-5,"MEAN_MOTION_DDOT":0},{"OBJECT_NAME":"STARLINK-32664","OBJECT_ID":"2024-229N","EPOCH":"2026-03-09T22:00:01.999584","MEAN_MOTION":15.32430196,"ECCENTRICITY":0.00073798,"INCLINATION":43.0018,"RA_OF_ASC_NODE":269.0847,"ARG_OF_PERICENTER":279.2302,"MEAN_ANOMALY":315.7732,"EPHEMERIS_TYPE":0,"CLASSIFICATION_TYPE":"U","NORAD_CAT_ID":62204,"ELEMENT_SET_NO":999,"REV_AT_EPOCH":570,"BSTAR":0.0043606707,"MEAN_MOTION_DOT":0.00141936,"MEAN_MOTION_DDOT":0}]
